NORAD_CAT_ID,OBJECT_NAME,OBJECT_TYPE,EPOCH,MEAN_MOTION,ECCENTRICITY,INCLINATION,RA_OF_ASC_NODE,ARG_OF_PERICENTER,MEAN_ANOMALY,BSTAR,MEAN_MOTION_DOT,MEAN_MOTION_DDOT,TLE_LINE0,TLE_LINE1,TLE_LINE2,SEMIMAJOR_AXIS,PERIOD,APOGEE,PERIGEE,DECAYED
53536.0,STARLINK-4053,PAYLOAD,2023-05-05 05:00:38,15.0885449,0.0001186,53.2195,50.5732,90.405,269.7078,0.00018378,2.639e-05,0.0,0 STARLINK-4053,1 53536U 22101K   23125.20877649  .00002639  00000-0  18378-3 0  9994,2 53536  53.2195  50.5732 0001186  90.4050 269.7078 15.08854490 39370,6917.836,95.437,540.522,538.881,0.0
53536.0,STARLINK-4053,PAYLOAD,2023-05-06 01:40:39,15.08844902,9.52e-05,53.218,46.7078,86.8426,273.2675,1.5336e-05,-4.4e-07,0.0,0 STARLINK-4053,1 53536U 22101K   23126.06990713 -.00000044  00000-0  15336-4 0  9998,2 53536  53.2180  46.7078 0000952  86.8426 273.2675 15.08844902 39505,6917.865,95.437,540.389,539.072,0.0
53536.0,STARLINK-4053,PAYLOAD,2023-05-07 03:06:49,15.08854178,0.0001016,53.2168,41.9502,96.1996,263.9112,0.00015262,2.143e-05,0.0,0 STARLINK-4053,1 53536U 22101K   23127.12973961  .00002143  00000-0  15262-3 0  9990,2 53536  53.2168  41.9502 0001016  96.1996 263.9112 15.08854178 39663,6917.837,95.437,540.405,538.999,0.0
53536.0,STARLINK-4053,PAYLOAD,2023-05-07 04:42:12,15.0885425,9.43e-05,53.2169,41.6526,95.9862,264.1237,0.00021592,3.152e-05,0.0,0 STARLINK-4053,1 53536U 22101K   23127.19597984  .00003152  00000-0  21592-3 0  9998,2 53536  53.2169  41.6526 0000943  95.9862 264.1237 15.08854250 39677,6917.837,95.437,540.354,539.049,0.0
53536.0,STARLINK-4053,PAYLOAD,2023-05-07 22:11:28,15.08826485,0.000113,53.2158,38.3831,90.5111,269.6011,-0.00010616,-1.976e-05,0.0,0 STARLINK-4053,1 53536U 22101K   23127.92463693 -.00001976  00000-0 -10616-3 0  9997,2 53536  53.2158  38.3831 0001130  90.5111 269.6011 15.08826485 39785,6917.922,95.438,540.568,539.005,0.0
53536.0,STARLINK-4053,PAYLOAD,2023-05-08 02:57:38,15.08828052,0.0001169,53.2166,37.4886,96.3469,263.7656,-5.8388e-05,-1.217e-05,0.0,0 STARLINK-4053,1 53536U 22101K   23128.12335756 -.00001217  00000-0 -58388-4 0  9995,2 53536  53.2166  37.4886 0001169  96.3469 263.7656 15.08828052 39812,6917.917,95.438,540.591,538.973,0.0
53536.0,STARLINK-4053,PAYLOAD,2023-05-08 22:02:15,15.0885304,0.0001128,53.2163,33.9215,89.0778,271.0343,0.00043006,6.566e-05,0.0,0 STARLINK-4053,1 53536U 22101K   23128.91823217  .00006566  00000-0  43006-3 0  9996,2 53536  53.2163  33.9215 0001128  89.0778 271.0343 15.08853040 39936,6917.841,95.437,540.486,538.925,0.0
53536.0,STARLINK-4053,PAYLOAD,2023-05-09 01:13:01,15.08863181,0.0001208,53.216,33.3271,89.0564,271.0567,0.0011126,0.00017475,0.0,0 STARLINK-4053,1 53536U 22101K   23129.05071322  .00017475  00000-0  11126-2 0  9992,2 53536  53.2160  33.3271 0001208  89.0564 271.0567 15.08863181 39958,6917.81,95.436,540.51,538.839,0.0
53536.0,STARLINK-4053,PAYLOAD,2023-05-09 23:28:25,15.08854871,0.0001371,53.2165,29.1609,87.303,272.8119,0.00070707,0.00010987,0.0,0 STARLINK-4053,1 53536U 22101K   23129.97807445  .00010987  00000-0  70707-3 0  9998,2 53536  53.2165  29.1609 0001371  87.3030 272.8119 15.08854871 40096,6917.835,95.437,540.648,538.751,0.0
53536.0,STARLINK-4053,PAYLOAD,2023-05-10 23:19:12,15.08866154,0.0001317,53.2163,24.7032,78.9277,281.1863,0.0011809,0.00018569,0.0,0 STARLINK-4053,1 53536U 22101K   23130.97167070  .00018569  00000-0  11809-2 0  9994,2 53536  53.2163  24.7032 0001317  78.9277 281.1863 15.08866154 40247,6917.8,95.436,540.577,538.754,0.0
53536.0,STARLINK-4053,PAYLOAD,2023-05-11 23:09:59,15.08844555,0.00013,53.2161,20.2415,100.4991,259.6148,0.00067318,0.00010443,0.0,0 STARLINK-4053,1 53536U 22101K   23131.96527567  .00010443  00000-0  67318-3 0  9995,2 53536  53.2161  20.2415 0001300 100.4991 259.6148 15.08844555 40390,6917.866,95.437,540.631,538.832,0.0
53536.0,STARLINK-4053,PAYLOAD,2023-05-12 21:25:24,15.08843675,0.0001126,53.2162,16.0778,102.2888,257.823,0.0007404,0.00011516,0.0,0 STARLINK-4053,1 53536U 22101K   23132.89264036  .00011516  00000-0  74040-3 0  9999,2 53536  53.2162  16.0778 0001126 102.2888 257.8230 15.08843675 40537,6917.869,95.437,540.513,538.955,0.0
53536.0,STARLINK-4053,PAYLOAD,2023-05-13 19:40:48,15.08844632,0.0001143,53.2167,11.9175,99.5343,260.5778,0.0003062,4.589e-05,0.0,0 STARLINK-4053,1 53536U 22101K   23133.82000014  .00004589  00000-0  30620-3 0  9995,2 53536  53.2167  11.9175 0001143  99.5343 260.5778 15.08844632 40677,6917.866,95.437,540.522,538.941,0.0
53536.0,STARLINK-4053,PAYLOAD,2023-05-13 21:16:11,15.0884474,0.0001147,53.2168,11.6206,99.6225,260.4896,0.00028458,4.245e-05,0.0,0 STARLINK-4053,1 53536U 22101K   23133.88623988  .00004245  00000-0  28458-3 0  9997,2 53536  53.2168  11.6206 0001147  99.6225 260.4896 15.08844740 40685,6917.866,95.437,540.524,538.937,0.0
53536.0,STARLINK-4053,PAYLOAD,2023-05-13 22:51:34,15.08843439,0.000116,53.217,11.3236,99.1705,260.9418,0.00023722,3.49e-05,0.0,0 STARLINK-4053,1 53536U 22101K   23133.95248010  .00003490  00000-0  23722-3 0  9994,2 53536  53.2170  11.3236 0001160  99.1705 260.9418 15.08843439 40691,6917.87,95.437,540.537,538.932,0.0
53536.0,STARLINK-4053,PAYLOAD,2023-05-14 21:06:58,15.08841394,0.0001232,53.2169,7.1609,97.6591,262.4541,6.7828e-05,7.92e-06,0.0,0 STARLINK-4053,1 53536U 22101K   23134.87983968  .00000792  00000-0  67828-4 0  9992,2 53536  53.2169   7.1609 0001232  97.6591 262.4541 15.08841394 40830,6917.876,95.437,540.593,538.889,0.0
53536.0,STARLINK-4053,PAYLOAD,2023-05-15 08:14:39,15.08844441,0.0001166,53.2169,5.0792,94.0184,266.0941,0.00011545,1.55e-05,0.0,0 STARLINK-4053,1 53536U 22101K   23135.34351778  .00001550  00000-0  11545-3 0  9990,2 53536  53.2169   5.0792 0001166  94.0184 266.0941 15.08844441 40903,6917.867,95.437,540.538,538.925,0.0
53536.0,STARLINK-4053,PAYLOAD,2023-05-15 22:33:08,15.088349,0.0001311,53.2176,2.4035,96.4331,263.681,-3.4629e-05,-8.39e-06,0.0,0 STARLINK-4053,1 53536U 22101K   23135.93968359 -.00000839  00000-0 -34629-4 0  9994,2 53536  53.2176   2.4035 0001311  96.4331 263.6810 15.08834900 40990,6917.896,95.438,540.668,538.854,0.0
53536.0,STARLINK-4053,PAYLOAD,2023-05-16 14:27:00,15.08830667,0.000119,53.2177,359.4287,93.9113,266.2015,0.00030056,4.498e-05,0.0,0 STARLINK-4053,1 53536U 22101K   23136.60208861  .00004498  00000-0  30056-3 0  9996,2 53536  53.2177 359.4287 0001190  93.9113 266.2015 15.08830667 41094,6917.909,95.438,540.597,538.951,0.0
53536.0,STARLINK-4053,PAYLOAD,2023-05-16 17:37:46,15.08839884,0.0001193,53.2163,358.8328,87.5992,272.5137,3.2344e-05,2.27e-06,0.0,0 STARLINK-4053,1 53536U 22101K   23136.73456263  .00000227  00000-0  32344-4 0  9990,2 53536  53.2163 358.8328 0001193  87.5992 272.5137 15.08839884 41113,6917.881,95.438,540.571,538.92,0.0
53536.0,STARLINK-4053,PAYLOAD,2023-05-17 03:10:04,15.08848637,0.0001171,53.2167,357.0483,87.6275,272.4851,9.1969e-05,1.176e-05,0.0,0 STARLINK-4053,1 53536U 22101K   23137.13199742  .00001176  00000-0  91969-4 0  9993,2 53536  53.2167 357.0483 0001171  87.6275 272.4851 15.08848637 41175,6917.854,95.437,540.529,538.909,0.0
53536.0,STARLINK-4053,PAYLOAD,2023-05-17 06:20:51,15.08833112,0.0001168,53.2167,356.4534,85.3077,274.8048,-4.6629e-05,-1.03e-05,0.0,0 STARLINK-4053,1 53536U 22101K   23137.26449037 -.00001030  00000-0 -46629-4 0  9996,2 53536  53.2167 356.4534 0001168  85.3077 274.8048 15.08833112 41194,6917.901,95.438,540.574,538.958,0.0
53536.0,STARLINK-4053,PAYLOAD,2023-05-17 20:39:19,15.08838331,0.0001189,53.2161,353.7767,83.8824,276.2303,0.00014585,2.034e-05,0.0,0 STARLINK-4053,1 53536U 22101K   23137.86064678  .00002034  00000-0  14585-3 0  9994,2 53536  53.2161 353.7767 0001189  83.8824 276.2303 15.08838331 41280,6917.885,95.438,540.573,538.928,0.0
53536.0,STARLINK-4053,PAYLOAD,2023-05-18 01:25:29,15.08845414,0.0001205,53.2158,352.8851,76.0981,284.0145,0.00028591,4.266e-05,0.0,0 STARLINK-4053,1 53536U 22101K   23138.05936513  .00004266  00000-0  28591-3 0  9993,2 53536  53.2158 352.8851 0001205  76.0981 284.0145 15.08845414 41312,6917.864,95.437,540.562,538.895,0.0
53536.0,STARLINK-4053,PAYLOAD,2023-05-18 20:30:06,15.08850755,0.000119,53.2156,349.3163,80.2848,279.8278,0.00038177,5.795e-05,0.0,0 STARLINK-4053,1 53536U 22101K   23138.85424329  .00005795  00000-0  38177-3 0  9997,2 53536  53.2156 349.3163 0001190  80.2848 279.8278 15.08850755 41435,6917.848,95.437,540.536,538.889,0.0
53536.0,STARLINK-4053,PAYLOAD,2023-05-19 17:10:07,15.08843877,0.0001243,53.2159,345.4505,81.7208,278.3925,0.00015248,2.14e-05,0.0,0 STARLINK-4053,1 53536U 22101K   23139.71536448  .00002140  00000-0  15248-3 0  9994,2 53536  53.2159 345.4505 0001243  81.7208 278.3925 15.08843877 41564,6917.869,95.437,540.593,538.874,0.0
53536.0,STARLINK-4053,PAYLOAD,2023-05-19 20:20:53,15.08846414,0.0001202,53.2158,344.8558,76.497,283.6156,0.00018888,2.72e-05,0.0,0 STARLINK-4053,1 53536U 22101K   23139.84784339  .00002720  00000-0  18888-3 0  9999,2 53536  53.2158 344.8558 0001202  76.4970 283.6156 15.08846414 41583,6917.861,95.437,540.557,538.894,0.0
53536.0,STARLINK-4053,PAYLOAD,2023-05-20 20:11:40,15.08854876,0.0001017,53.2158,340.3949,92.1768,267.934,0.00029274,4.376e-05,0.0,0 STARLINK-4053,1 53536U 22101K   23140.84143670  .00004376  00000-0  29274-3 0  9998,2 53536  53.2158 340.3949 0001017  92.1768 267.9340 15.08854876 41730,6917.835,95.437,540.403,538.996,0.0
53536.0,STARLINK-4053,PAYLOAD,2023-05-21 13:40:55,15.08831964,0.0001134,53.2158,337.1216,90.0392,270.073,-7.8476e-05,-1.536e-05,0.0,0 STARLINK-4053,1 53536U 22101K   23141.57008647 -.00001536  00000-0 -78476-4 0  9999,2 53536  53.2158 337.1216 0001134  90.0392 270.0730 15.08831964 41844,6917.905,95.438,540.554,538.985,0.0
53536.0,STARLINK-4053,PAYLOAD,2023-05-21 15:16:18,15.08827162,9.97e-05,53.2158,336.8246,91.5912,268.5194,-0.00016543,-2.919e-05,0.0,0 STARLINK-4053,1 53536U 22101K   23141.63632894 -.00002919  00000-0 -16543-3 0  9995,2 53536  53.2158 336.8246 0000997  91.5912 268.5194 15.08827162 41855,6917.92,95.438,540.474,539.095,0.0
